COMMENT,ORIGINATOR,NORAD_CAT_ID,OBJECT_NAME,OBJECT_TYPE,CLASSIFICATION_TYPE,INTLDES,EPOCH,EPOCH_MICROSECONDS,MEAN_MOTION,ECCENTRICITY,INCLINATION,RA_OF_ASC_NODE,ARG_OF_PERICENTER,MEAN_ANOMALY,EPHEMERIS_TYPE,ELEMENT_SET_NO,REV_AT_EPOCH,BSTAR,MEAN_MOTION_DOT,MEAN_MOTION_DDOT,FILE,TLE_LINE0,TLE_LINE1,TLE_LINE2,OBJECT_ID,OBJECT_NUMBER,SEMIMAJOR_AXIS,PERIOD,APOGEE,PERIGEE,DECAYED
"GENERATED VIA SPACETRACK.ORG API","18 SPCS","55653","STARLINK-5067","PAYLOAD","U","23021AB","2023-10-10 07:29:23","669664","14.98331295","0.0002819","70","246.5525","264.8006","95.2831","0","999","3677","0.000065858","0.00000693","0","4030143","0 STARLINK-5067","1 55653U 23021AB  23283.31207951  .00000693  00000-0  65858-4 0  9992","2 55653  70.0000 246.5525 0002819 264.8006  95.2831 14.98331295 36774","2023-021AB","55653","6950.189","96.107","574.013","570.095","0"
"GENERATED VIA SPACETRACK.ORG API","18 SPCS","55419","STARLINK-5629","PAYLOAD","U","23014AE","2023-10-10 07:45:45","993600","14.9832924","0.000276","70","146.6332","261.1903","98.8944","0","999","3954","0.0000032841","-0.00000054","0","4030143","0 STARLINK-5629","1 55419U 23014AE  23283.32344900 -.00000054  00000-0  32841-5 0  9990","2 55419  70.0000 146.6332 0002760 261.1903  98.8944 14.98329240 39540","2023-014AE","55419","6950.195","96.107","573.978","570.142","0"
"GENERATED VIA SPACETRACK.ORG API","18 SPCS","55787","STARLINK-5811","PAYLOAD","U","23028AY","2023-10-10 09:29:55","647744","14.98315869","0.0002639","70","266.6364","266.9937","93.092","0","999","3501","0.00036095","0.00004215","0","4030143","0 STARLINK-5811","1 55787U 23028AY  23283.39578296  .00004215  00000-0  36095-3 0  9992","2 55787  70.0000 266.6364 0002639 266.9937  93.0920 14.98315869 35012","2023-028AY","55787","6950.237","96.108","573.936","570.267","0"
"GENERATED VIA SPACETRACK.ORG API","18 SPCS","55782","STARLINK-5826","PAYLOAD","U","23028AT","2023-10-10 09:42:11","286720","14.98328744","0.0002101","70","266.669","264.0609","96.031","0","999","3501","0.000015809","0.00000096","0","4030143","0 STARLINK-5826","1 55782U 23028AT  23283.40429730  .00000096  00000-0  15809-4 0  9991","2 55782  70.0000 266.6690 0002101 264.0609  96.0310 14.98328744 35010","2023-028AT","55782","6950.197","96.107","573.522","570.602","0"
"GENERATED VIA SPACETRACK.ORG API","18 SPCS","49175","STARLINK-3087","PAYLOAD","U","21082AX","2023-10-10 10:04:07","377312","14.98336551","0.0002801","70","336.459","263.5597","96.5243","0","999","11446","0.00014371","0.00001622","0","4029989","0 STARLINK-3087","1 49175U 21082AX  23283.41952983  .00001622  00000-0  14371-3 0  9998","2 49175  70.0000 336.4590 0002801 263.5597  96.5243 14.98336551114463","2021-082AX","49175","6950.173","96.107","573.984","570.091","0"
"GENERATED VIA SPACETRACK.ORG API","18 SPCS","55435","STARLINK-5626","PAYLOAD","U","23014AW","2023-10-10 10:04:18","416640","14.98326792","0.0002682","70","166.4268","265.5095","94.5758","0","999","3812","-0.000059465","-0.00000802","0","4029836","0 STARLINK-5626","1 55435U 23014AW  23283.41965760 -.00000802  00000-0 -59465-4 0  9993","2 55435  70.0000 166.4268 0002682 265.5095  94.5758 14.98326792 38127","2023-014AW","55435","6950.203","96.107","573.932","570.204","0"
"GENERATED VIA SPACETRACK.ORG API","18 SPCS","55435","STARLINK-5626","PAYLOAD","U","23014AW","2023-10-10 10:04:18","416640","14.98326792","0.0002682","70","166.4268","265.5095","94.5758","0","999","3906","-0.000059465","-0.00000802","0","4030143","0 STARLINK-5626","1 55435U 23014AW  23283.41965760 -.00000802  00000-0 -59465-4 0  9993","2 55435  70.0000 166.4268 0002682 265.5095  94.5758 14.98326792 39061","2023-014AW","55435","6950.203","96.107","573.932","570.204","0"
"GENERATED VIA SPACETRACK.ORG API","18 SPCS","56789","STARLINK-6325","PAYLOAD","U","23078Y","2023-10-10 10:49:16","926240","15.69926037","0.0003077","70","41.67","256.781","103.3042","0","999","2105","-0.00000061107","-0.00000286","0","4029789","0 STARLINK-6325","1 56789U 23078Y   23283.45089035 -.00000286  00000-0 -61107-6 0  9996","2 56789  70.0000  41.6700 0003077 256.7810 103.3042 15.69926037 21057","2023-078Y","56789","6737.246","91.724","361.184","357.038","0"
"GENERATED VIA SPACETRACK.ORG API","18 SPCS","56789","STARLINK-6325","PAYLOAD","U","23078Y","2023-10-10 10:49:16","926240","15.69926037","0.0003077","70","41.67","256.781","103.3042","0","999","2146","-0.00000061107","-0.00000286","0","4030143","0 STARLINK-6325","1 56789U 23078Y   23283.45089035 -.00000286  00000-0 -61107-6 0  9996","2 56789  70.0000  41.6700 0003077 256.7810 103.3042 15.69926037 21462","2023-078Y","56789","6737.246","91.724","361.184","357.038","0"
"GENERATED VIA SPACETRACK.ORG API","18 SPCS","56783","STARLINK-6357","PAYLOAD","U","23078S","2023-10-10 10:51:43","19136","15.69929877","0.0002718","70","41.6775","266.8739","93.2145","0","999","2105","-0.000014371","-0.0000194","0","4029794","0 STARLINK-6357","1 56783U 23078S   23283.45258124 -.00001940  00000-0 -14371-4 0  9994","2 56783  70.0000  41.6775 0002718 266.8739  93.2145 15.69929877 21052","2023-078S","56783","6737.235","91.724","360.931","357.268","0"
"GENERATED VIA SPACETRACK.ORG API","18 SPCS","56783","STARLINK-6357","PAYLOAD","U","23078S","2023-10-10 10:51:43","19136","15.69929877","0.0002718","70","41.6775","266.8739","93.2145","0","999","2079","-0.000014371","-0.0000194","0","4030143","0 STARLINK-6357","1 56783U 23078S   23283.45258124 -.00001940  00000-0 -14371-4 0  9994","2 56783  70.0000  41.6775 0002718 266.8739  93.2145 15.69929877 20792","2023-078S","56783","6737.235","91.724","360.931","357.268","0"
"GENERATED VIA SPACETRACK.ORG API","18 SPCS","55744","STARLINK-5601","PAYLOAD","U","23028D","2023-10-10 12:07:02","759520","14.9834933","0.0002696","70","306.3789","259.5292","100.5564","0","999","3404","0.00048417","0.00005692","0","4030143","0 STARLINK-5601","1 55744U 23028D   23283.50489305  .00005692  00000-0  48417-3 0  9991","2 55744  70.0000 306.3789 0002696 259.5292 100.5564 14.98349330 34043","2023-028D","55744","6950.133","96.106","573.872","570.124","0"
"GENERATED VIA SPACETRACK.ORG API","18 SPCS","49180","STARLINK-3050","PAYLOAD","U","21082BC","2023-10-10 12:46:20","843616","14.98336148","0.0002653","70","336.1665","267.0223","93.0632","0","999","11565","0.00016588","0.00001887","0","4030088","0 STARLINK-3050","1 49180U 21082BC  23283.53218569  .00001887  00000-0  16588-3 0  9997","2 49180  70.0000 336.1665 0002653 267.0223  93.0632 14.98336148115657","2021-082BC","49180","6950.174","96.107","573.883","570.195","0"
"GENERATED VIA SPACETRACK.ORG API","18 SPCS","55289","STARLINK-5320","PAYLOAD","U","23010W","2023-10-10 13:39:16","97184","14.98339674","0.0002927","70","86.1653","273.0956","86.9868","0","999","4128","-0.000064748","-0.00000866","0","4030143","0 STARLINK-5320","1 55289U 23010W   23283.56893631 -.00000866  00000-0 -64748-4 0  9999","2 55289  70.0000  86.1653 0002927 273.0956  86.9868 14.98339674 41283","2023-010W","55289","6950.163","96.106","574.062","569.994","0"
"GENERATED VIA SPACETRACK.ORG API","18 SPCS","55275","STARLINK-5260","PAYLOAD","U","23010G","2023-10-10 13:51:17","203680","14.98332374","0.0002872","70","86.1965","268.5643","91.5187","0","999","4129","0.000024166","0.00000195","0","4030143","0 STARLINK-5260","1 55275U 23010G   23283.57728245  .00000195  00000-0  24166-4 0  9996","2 55275  70.0000  86.1965 0002872 268.5643  91.5187 14.98332374 41292","2023-010G","55275","6950.186","96.107","574.047","570.054","0"
"GENERATED VIA SPACETRACK.ORG API","18 SPCS","55960","STARLINK-5938","PAYLOAD","U","23037AY","2023-10-10 14:00:01","224","14.99033964","0.0003314","70","325.5009","282.5599","136.3407","0","999","594","-0.07938","-0.0089288","0","4030143","0 STARLINK-5938","1 55960U 23037AY  23283.58334491 -.00892880  00000-0 -79380-1 0  9990","2 55960  70.0000 325.5009 0003314 282.5599 136.3407 14.99033964  5949","2023-037AY","55960","6948.017","96.062","572.184","567.579","0"
"GENERATED VIA SPACETRACK.ORG API","18 SPCS","55779","STARLINK-5817","PAYLOAD","U","23028AQ","2023-10-10 16:12:27","338688","14.98332028","0.00028","70","265.6034","271.3882","88.6956","0","999","3506","-0.0001486","-0.00001866","0","4030441","0 STARLINK-5817","1 55779U 23028AQ  23283.67531642 -.00001866  00000-0 -14860-3 0  9995","2 55779  70.0000 265.6034 0002800 271.3882  88.6956 14.98332028 35065","2023-028AQ","55779","6950.187","96.107","573.998","570.106","0"
"GENERATED VIA SPACETRACK.ORG API","18 SPCS","56795","STARLINK-6061","PAYLOAD","U","23078AE","2023-10-10 16:54:37","800288","15.69914956","0.0003497","70","40.9477","273.6441","86.4355","0","999","2109","0.0000041415","0.00000285","0","4030192","0 STARLINK-6061","1 56795U 23078AE  23283.70460417  .00000285  00000-0  41415-5 0  9994","2 56795  70.0000  40.9477 0003497 273.6441  86.4355 15.69914956 21090","2023-078AE","56795","6737.277","91.725","361.498","356.786","0"
"GENERATED VIA SPACETRACK.ORG API","18 SPCS","56795","STARLINK-6061","PAYLOAD","U","23078AE","2023-10-10 16:54:37","800288","15.69914956","0.0003497","70","40.9477","273.6441","86.4355","0","999","2083","0.0000041415","0.00000285","0","4030441","0 STARLINK-6061","1 56795U 23078AE  23283.70460417  .00000285  00000-0  41415-5 0  9994","2 56795  70.0000  40.9477 0003497 273.6441  86.4355 15.69914956 20831","2023-078AE","56795","6737.277","91.725","361.498","356.786","0"
"GENERATED VIA SPACETRACK.ORG API","18 SPCS","55289","STARLINK-5320","PAYLOAD","U","23010W","2023-10-10 18:27:40","45536","14.98340916","0.000296","70","85.6606","270.9241","89.1579","0","999","4100","-0.000050377","-0.00000694","0","4030399","0 STARLINK-5320","1 55289U 23010W   23283.76921349 -.00000694  00000-0 -50377-4 0  9991","2 55289  70.0000  85.6606 0002960 270.9241  89.1579 14.98340916 41000","2023-010W","55289","6950.159","96.106","574.081","569.967","0"
